NORAD_CAT_ID,OBJECT_NAME,OBJECT_TYPE,EPOCH,MEAN_MOTION,ECCENTRICITY,INCLINATION,RA_OF_ASC_NODE,ARG_OF_PERICENTER,MEAN_ANOMALY,BSTAR,MEAN_MOTION_DOT,MEAN_MOTION_DDOT,TLE_LINE0,TLE_LINE1,TLE_LINE2,SEMIMAJOR_AXIS,PERIOD,APOGEE,PERIGEE,DECAYED
53395.0,STARLINK-4534,PAYLOAD,2023-11-27 03:17:39,15.08817149,0.0001667,53.218,266.0944,75.1832,284.9345,-0.00030964,-5.209e-05,0.0,0 STARLINK-4534,1 53395U 22097H   23331.13725985 -.00005209  00000-0 -30964-3 0  9990,2 53395  53.2180 266.0944 0001667  75.1832 284.9345 15.08817149 72180,6917.95,95.439,540.968,538.662,0.0
53395.0,STARLINK-4534,PAYLOAD,2023-11-27 04:53:02,15.08821417,0.0001578,53.2176,265.7934,99.645,260.4721,-0.00030186,-5.086e-05,0.0,0 STARLINK-4534,1 53395U 22097H   23331.20349783 -.00005086  00000-0 -30186-3 0  9995,2 53395  53.2176 265.7934 0001578  99.6450 260.4721 15.08821417 72683,6917.937,95.439,540.894,538.711,0.0
53395.0,STARLINK-4534,PAYLOAD,2023-11-27 19:11:29,15.08837499,0.000134,53.2186,263.1202,85.7279,274.3866,-0.00010303,-1.927e-05,0.0,0 STARLINK-4534,1 53395U 22097H   23331.79964981 -.00001927  00000-0 -10303-3 0  9991,2 53395  53.2186 263.1202 0001340  85.7279 274.3866 15.08837499 72283,6917.888,95.438,540.68,538.826,0.0
53395.0,STARLINK-4534,PAYLOAD,2023-11-28 01:33:01,15.08858319,0.0001698,53.2184,261.9304,92.0745,268.0442,0.00023832,3.509e-05,0.0,0 STARLINK-4534,1 53395U 22097H   23332.06459973  .00003509  00000-0  23832-3 0  9999,2 53395  53.2184 261.9304 0001698  92.0745 268.0442 15.08858319 72324,6917.824,95.436,540.864,538.515,0.0
53395.0,STARLINK-4534,PAYLOAD,2023-11-28 04:43:47,15.0886588,0.0001569,53.2183,261.3331,88.7013,271.4158,0.00036781,5.575e-05,0.0,0 STARLINK-4534,1 53395U 22097H   23332.19707533  .00005575  00000-0  36781-3 0  9993,2 53395  53.2183 261.3331 0001569  88.7013 271.4158 15.08865880 72833,6917.801,95.436,540.752,538.581,0.0
53395.0,STARLINK-4534,PAYLOAD,2023-11-28 19:02:17,15.08837333,0.0001448,53.2176,258.6609,73.245,286.8701,0.00030375,4.549e-05,0.0,0 STARLINK-4534,1 53395U 22097H   23332.79325433  .00004549  00000-0  30375-3 0  9997,2 53395  53.2176 258.6609 0001448  73.2450 286.8701 15.08837333 72434,6917.889,95.438,540.755,538.752,0.0
53395.0,STARLINK-4534,PAYLOAD,2023-11-28 23:48:26,15.08843767,0.0001516,53.2173,257.7689,81.5232,278.5932,0.00034315,5.178e-05,0.0,0 STARLINK-4534,1 53395U 22097H   23332.99197070  .00005178  00000-0  34315-3 0  9990,2 53395  53.2173 257.7689 0001516  81.5232 278.5932 15.08843767 72954,6917.869,95.437,540.783,538.685,0.0
53395.0,STARLINK-4534,PAYLOAD,2023-11-30 01:14:36,15.08846163,0.0002078,53.2171,253.015,55.2678,304.8509,-2.6402e-05,-7.09e-06,0.0,0 STARLINK-4534,1 53395U 22097H   23334.05180963 -.00000709  00000-0 -26402-4 0  9998,2 53395  53.2171 253.0150 0002078  55.2678 304.8509 15.08846163 72620,6917.862,95.437,541.164,538.289,0.0
53395.0,STARLINK-4534,PAYLOAD,2023-11-30 04:25:21,15.08854257,0.0001606,53.2176,252.412,91.385,268.7326,-2.2156e-06,-3.23e-06,0.0,0 STARLINK-4534,1 53395U 22097H   23334.18428237 -.00000323  00000-0 -22156-5 0  9996,2 53395  53.2176 252.4120 0001606  91.3850 268.7326 15.08854257 72644,6917.837,95.437,540.813,538.591,0.0
53395.0,STARLINK-4534,PAYLOAD,2023-12-01 01:05:23,15.08837045,0.0001799,53.2171,248.5513,105.5747,254.5443,3.5532e-05,2.77e-06,0.0,0 STARLINK-4534,1 53395U 22097H   23335.04541158  .00000277  00000-0  35532-4 0  9997,2 53395  53.2171 248.5513 0001799 105.5747 254.5443 15.08837045 72770,6917.889,95.438,540.999,538.51,0.0
53395.0,STARLINK-4534,PAYLOAD,2023-12-01 21:45:24,15.08842003,0.0001458,53.2162,244.674,108.0739,252.0412,0.000438,6.69e-05,0.0,0 STARLINK-4534,1 53395U 22097H   23335.90652809  .00006690  00000-0  43800-3 0  9999,2 53395  53.2162 244.6740 0001458 108.0739 252.0412 15.08842003 73398,6917.874,95.437,540.748,538.731,0.0
53395.0,STARLINK-4534,PAYLOAD,2023-12-02 00:56:09,15.08869763,0.0001476,53.2163,244.0882,93.7579,266.3582,0.00044084,6.741e-05,0.0,0 STARLINK-4534,1 53395U 22097H   23336.03899562  .00006741  00000-0  44084-3 0  9995,2 53395  53.2163 244.0882 0001476  93.7579 266.3582 15.08869763 72928,6917.789,95.436,540.675,538.633,0.0
53395.0,STARLINK-4534,PAYLOAD,2023-12-02 04:06:55,15.08874518,0.0001492,53.2161,243.4893,90.9719,269.1444,0.00053921,8.312e-05,0.0,0 STARLINK-4534,1 53395U 22097H   23336.17147209  .00008312  00000-0  53921-3 0  9990,2 53395  53.2161 243.4893 0001492  90.9719 269.1444 15.08874518 73433,6917.775,95.435,540.672,538.608,0.0
53395.0,STARLINK-4534,PAYLOAD,2023-12-02 21:36:11,15.08822465,0.000144,53.2163,240.2232,106.87,253.245,-0.00023014,-3.947e-05,0.0,0 STARLINK-4534,1 53395U 22097H   23336.90013835 -.00003947  00000-0 -23014-3 0  9999,2 53395  53.2163 240.2232 0001440 106.8700 253.2450 15.08822465 73544,6917.934,95.439,540.795,538.803,0.0
53395.0,STARLINK-4534,PAYLOAD,2023-12-02 23:11:34,15.08825037,0.0001621,53.2159,239.9238,112.4249,247.6915,-0.00030253,-5.098e-05,0.0,0 STARLINK-4534,1 53395U 22097H   23336.96637439 -.00005098  00000-0 -30253-3 0  9999,2 53395  53.2159 239.9238 0001621 112.4249 247.6915 15.08825037 73060,6917.926,95.439,540.913,538.67,0.0
53395.0,STARLINK-4534,PAYLOAD,2023-12-03 18:16:12,15.08832444,0.0001676,53.2159,236.3511,118.1675,241.9487,-0.00019534,-3.395e-05,0.0,0 STARLINK-4534,1 53395U 22097H   23337.76125695 -.00003395  00000-0 -19534-3 0  9991,2 53395  53.2159 236.3511 0001676 118.1675 241.9487 15.08832444 73185,6917.903,95.438,540.928,538.609,0.0
53395.0,STARLINK-4534,PAYLOAD,2023-12-03 23:02:21,15.08839502,0.0001722,53.216,235.4612,118.9195,241.197,-0.00015135,-2.696e-05,0.0,0 STARLINK-4534,1 53395U 22097H   23337.95997541 -.00002696  00000-0 -15135-3 0  9995,2 53395  53.2160 235.4612 0001722 118.9195 241.1970 15.08839502 73211,6917.882,95.438,540.938,538.556,0.0
53395.0,STARLINK-4534,PAYLOAD,2023-12-05 02:03:55,15.08848211,0.0001687,53.2164,230.4075,121.3567,238.759,0.00039456,5.998e-05,0.0,0 STARLINK-4534,1 53395U 22097H   23339.08605611  .00005998  00000-0  39456-3 0  9993,2 53395  53.2164 230.4075 0001687 121.3567 238.7590 15.08848211 73389,6917.855,95.437,540.887,538.553,0.0
53395.0,STARLINK-4534,PAYLOAD,2023-12-06 00:19:19,15.088473,0.0001393,53.216,226.2481,102.625,257.4898,0.0001438,2.002e-05,0.0,0 STARLINK-4534,1 53395U 22097H   23340.01341552  .00002002  00000-0  14380-3 0  9991,2 53395  53.2160 226.2481 0001393 102.6250 257.4898 15.08847300 73527,6917.858,95.437,540.687,538.759,0.0
53395.0,STARLINK-4534,PAYLOAD,2023-12-06 22:34:43,15.08835042,0.0001511,53.2161,222.0809,118.5509,241.5636,-4.6745e-05,-1.032e-05,0.0,0 STARLINK-4534,1 53395U 22097H   23340.94077976 -.00001032  00000-0 -46745-4 0  9994,2 53395  53.2161 222.0809 0001511 118.5509 241.5636 15.08835042 74155,6917.896,95.438,540.806,538.715,0.0
53395.0,STARLINK-4534,PAYLOAD,2023-12-07 01:45:30,15.08829224,0.0001494,53.217,221.4873,98.6692,261.447,0.00016128,2.279e-05,0.0,0 STARLINK-4534,1 53395U 22097H   23341.07326506  .00002279  00000-0  16128-3 0  9998,2 53395  53.2170 221.4873 0001494  98.6692 261.4470 15.08829224 73689,6917.913,95.438,540.812,538.745,0.0
53395.0,STARLINK-4534,PAYLOAD,2023-12-08 01:36:16,15.08842893,0.000145,53.2164,217.0276,118.5624,241.5514,0.00011069,1.474e-05,0.0,0 STARLINK-4534,1 53395U 22097H   23342.06685906  .00001474  00000-0  11069-3 0  9995,2 53395  53.2164 217.0276 0001450 118.5624 241.5514 15.08842893 73831,6917.872,95.437,540.74,538.733,0.0
53395.0,STARLINK-4534,PAYLOAD,2023-12-09 01:27:03,15.0884687,0.0001363,53.2168,212.567,128.6849,231.4265,0.00016041,2.266e-05,0.0,0 STARLINK-4534,1 53395U 22097H   23343.06045448  .00002266  00000-0  16041-3 0  9992,2 53395  53.2168 212.5670 0001363 128.6849 231.4265 15.08846870 74478,6917.859,95.437,540.667,538.781,0.0
53395.0,STARLINK-4534,PAYLOAD,2023-12-09 15:45:34,15.08815462,0.0001187,53.2175,209.8911,122.927,237.1836,-0.00017037,-2.996e-05,0.0,0 STARLINK-4534,1 53395U 22097H   23343.65664755 -.00002996  00000-0 -17037-3 0  9993,2 53395  53.2175 209.8911 0001187 122.9270 237.1836 15.08815462 74078,6917.955,95.439,540.642,538.999,0.0
53395.0,STARLINK-4534,PAYLOAD,2023-12-10 18:47:06,15.08836418,0.0002281,53.2167,204.8355,122.0633,238.0581,3.0774e-05,2.01e-06,0.0,0 STARLINK-4534,1 53395U 22097H   23344.78271237  .00000201  00000-0  30774-4 0  9996,2 53395  53.2167 204.8355 0002281 122.0633 238.0581 15.08836418 74246,6917.891,95.438,541.334,538.178,0.0
53395.0,STARLINK-4534,PAYLOAD,2023-12-10 20:22:29,15.0883849,0.0002008,53.2183,204.5398,131.48,228.6365,4.6257e-05,4.48e-06,0.0,0 STARLINK-4534,1 53395U 22097H   23344.84895152  .00000448  00000-0  46257-4 0  9997,2 53395  53.2183 204.5398 0002008 131.4800 228.6365 15.08838490 74747,6917.885,95.438,541.139,538.361,0.0
53395.0,STARLINK-4534,PAYLOAD,2023-12-11 20:13:15,15.0884995,0.0001565,53.2167,200.0774,121.3841,238.7304,0.00015953,2.253e-05,0.0,0 STARLINK-4534,1 53395U 22097H   23345.84254354  .00002253  00000-0  15953-3 0  9995,2 53395  53.2167 200.0774 0001565 121.3841 238.7304 15.08849950 74409,6917.85,95.437,540.798,538.632,0.0
53395.0,STARLINK-4534,PAYLOAD,2023-12-11 21:48:39,15.0885015,0.0001331,53.215,199.786,100.637,259.4772,0.00022313,3.266e-05,0.0,0 STARLINK-4534,1 53395U 22097H   23345.90878782  .00003266  00000-0  22313-3 0  9992,2 53395  53.2150 199.7860 0001331 100.6370 259.4772 15.08850150 74907,6917.849,95.437,540.635,538.794,0.0
53395.0,STARLINK-4534,PAYLOAD,2023-12-12 21:39:25,15.08855781,0.0001304,53.2161,195.3214,91.63,268.4841,0.00011605,1.56e-05,0.0,0 STARLINK-4534,1 53395U 22097H   23346.90238151  .00001560  00000-0  11605-3 0  9990,2 53395  53.2161 195.3214 0001304  91.6300 268.4841 15.08855781 75055,6917.832,95.437,540.599,538.795,0.0
53395.0,STARLINK-4534,PAYLOAD,2023-12-13 13:33:17,15.08847441,0.000156,53.2166,192.3505,75.5955,284.5211,3.47e-05,2.64e-06,0.0,0 STARLINK-4534,1 53395U 22097H   23347.56478539  .00000264  00000-0  34700-4 0  9991,2 53395  53.2166 192.3505 0001560  75.5955 284.5211 15.08847441 75156,6917.858,95.437,540.802,538.643,0.0
